*******************************************************************************
 Revised: June 02, 2025                 Mars                            499 / 4
 
 PHYSICAL DATA (updated 2025-Jun-02):
  Vol. mean radius (km) = 3389.92+-0.04   Density (g/cm^3)      =  3.933(5+-4)
  Mass x10^23 (kg)      =    6.4171       Flattening, f         =  1/169.779
  Volume (x10^10 km^3)  =   16.318        Equatorial radius (km)=  3396.19
  Sidereal rot. period  =   24.622962 hr  Sid. rot. rate, rad/s =  0.0000708822 
  Mean solar day (sol)  =   88775.24415 s Polar gravity m/s^2   =  3.758
  Core radius (km)      = ~1700           Equ. gravity  m/s^2   =  3.71
  Geometric Albedo      =    0.150                                              

  GM (km^3/s^2)         = 42828.375662    Mass ratio (Sun/Mars) = 3098703.59
  GM 1-sigma (km^3/s^2) = +- 0.00028      Mass of atmosphere, kg= ~ 2.5 x 10^16
  Mean temperature (K)  =  210            Atmos. pressure (bar) =    0.0056 
  Obliquity to orbit    =   25.19 deg     Max. angular diam.    =  17.9"
  Mean sidereal orb per =    1.88081578 y Visual mag. V(1,0)    =  -1.52
  Mean sidereal orb per =  686.98 d       Orbital speed,  km/s  =  24.13
  Hill's sphere rad. Rp =  319.8          Escape speed, km/s    =   5.027
                                 Perihelion  Aphelion    Mean
  Solar Constant (W/m^2)         717         493         589
  Maximum Planetary IR (W/m^2)   470         315         390
  Minimum Planetary IR (W/m^2)    30          30          30
*******************************************************************************


*******************************************************************************
Ephemeris / WWW_USER Wed May 27 03:38:28 2026 Pasadena, USA      / Horizons
*******************************************************************************
Target body name: Mars (499)                      {source: mar099}
Center body name: Sun (10)                        {source: DE441}
Center-site name: BODY CENTER
*******************************************************************************
Start time      : A.D. 1800-Jan-01 00:00:00.0000 TDB
Stop  time      : A.D. 2000-Jan-01 00:00:00.0000 TDB
Step-size       : 14400 minutes
*******************************************************************************
Center geodetic : 0.0, 0.0, 0.0                   {E-lon(deg),Lat(deg),Alt(km)}
Center cylindric: 0.0, 0.0, 0.0                   {E-lon(deg),Dxy(km),Dz(km)}
Center radii    : 695700.0, 695700.0, 695700.0 km {Equator_a, b, pole_c}
Output units    : KM-S
Calendar mode   : Mixed Julian/Gregorian
Output type     : GEOMETRIC cartesian states
Output format   : 3 (position, velocity, LT, range, range-rate)
Reference frame : Ecliptic of J2000.0
*******************************************************************************
JDTDB
   X     Y     Z
   VX    VY    VZ
   LT    RG    RR
*******************************************************************************
$$SOE
2405376.500000000 = A.D. 1873-Aug-06 00:00:00.0000 TDB 
 X = 8.994231053220648E+06 Y =-2.165624866944851E+08 Z =-4.750996444269374E+06
 VX= 2.514468539931566E+01 VY= 3.078031449684648E+00 VZ=-5.604912581417200E-01
 LT= 7.231711033327933E+02 RG= 2.168012426227101E+08 RR=-2.019204951758047E+00
2405386.500000000 = A.D. 1873-Aug-16 00:00:00.0000 TDB 
 X = 3.063960896060807E+07 Y =-2.128471491854660E+08 Z =-5.211206081953228E+06
 VX= 2.491838281008416E+01 VY= 5.524846218719158E+00 VZ=-5.037122959752027E-01
 LT= 7.175106449124719E+02 RG= 2.151042798794751E+08 RR=-1.905277355522865E+00
2405396.500000000 = A.D. 1873-Aug-26 00:00:00.0000 TDB 
 X = 5.197947879273598E+07 Y =-2.070152168276248E+08 Z =-5.619572419353858E+06
 VX= 2.443623321902557E+01 VY= 7.972743868097631E+00 VZ=-4.405530130619741E-01
 LT= 7.122100854284976E+02 RG= 2.135152121229993E+08 RR=-1.769526915035635E+00
2405406.500000000 = A.D. 1873-Sep-05 00:00:00.0000 TDB 
 X = 7.279006548429103E+07 Y =-1.990785640350193E+08 Z =-5.970783203646153E+06
 VX= 2.369257526656342E+01 VY= 1.039170057198792E+01 VZ=-3.715009914783938E-01
 LT= 7.073314417440365E+02 RG= 2.120526315411285E+08 RR=-1.612630639116666E+00
2405416.500000000 = A.D. 1873-Sep-15 00:00:00.0000 TDB 
 X = 9.284445703208433E+07 Y =-1.890758839247797E+08 Z =-6.260009348189384E+06
 VX= 2.268590847300441E+01 VY= 1.274976199010366E+01 VZ=-2.971871255714520E-01
 LT= 7.029341637061410E+02 RG= 2.107343607496384E+08 RR=-1.435699752016033E+00
2405426.500000000 = A.D. 1873-Sep-25 00:00:00.0000 TDB 
 X = 1.119164427282500E+08 Y =-1.770740711406757E+08 Z =-6.483028501255497E+06
 VX= 2.141943964570949E+01 VY= 1.501372667087051E+01 VZ=-2.183845947930587E-01
 LT= 6.990738430596748E+02 RG= 2.095770657343661E+08 RR=-1.240299933396900E+00
2405436.500000000 = A.D. 1873-Oct-05 00:00:00.0000 TDB 
 X = 1.297847783216864E+08 Y =-1.631689477777325E+08 Z =-6.636346050648876E+06
 VX= 1.990151773392405E+01 VY= 1.714999016684782E+01 VZ=-1.360032139830709E-01
 LT= 6.958009128798681E+02 RG= 2.085958659508995E+08 RR=-1.028444246441013E+00
2405446.500000000 = A.D. 1873-Oct-15 00:00:00.0000 TDB 
 X = 1.462377495890124E+08 Y =-1.474851892139983E+08 Z =-6.717307416549623E+06
 VX= 1.814587433285538E+01 VY= 1.912554158938911E+01 VZ=-5.107436697008261E-02
 LT= 6.931593738355065E+02 RG= 2.078039524678874E+08 RR=-8.025795908342127E-01
2405456.500000000 = A.D. 1873-Oct-25 00:00:00.0000 TDB 
 X = 1.610778408565920E+08 Y =-1.301753501376634E+08 Z =-6.724193769974448E+06
 VX= 1.617162386391585E+01 VY= 2.090903868192501E+01 VZ= 3.527157247077373E-02
 LT= 6.911855930465091E+02 RG= 2.072122278736007E+08 RR=-5.655474602415055E-01
2405466.500000000 = A.D. 1873-Nov-04 00:00:00.0000 TDB 
 X = 1.741262927554848E+08 Y =-1.114179503056758E+08 Z =-6.656295216727324E+06
 VX= 1.400300376712537E+01 VY= 2.247189904726256E+01 VZ= 1.218348119471919E-01
 LT= 6.899072542672615E+02 RG= 2.068289915488133E+08 RR=-3.205197003137928E-01
2405476.500000000 = A.D. 1873-Nov-14 00:00:00.0000 TDB 
 X = 1.852273201390171E+08 Y =-9.141463636745186E+07 Z =-6.513956232822884E+06
 VX= 1.166884793688125E+01 VY= 2.378933419907539E+01 VZ= 2.073806874040951E-01
 LT= 6.893425252732826E+02 RG= 2.066596900556045E+08 RR=-7.091257850715918E-02
2405486.500000000 = A.D. 1873-Nov-24 00:00:00.0000 TDB 
 X = 1.942517647608145E+08 Y =-7.038650227761070E+07 Z =-6.298589534431923E+06
 VX= 9.201810795772893E+00 VY= 2.484125063218042E+01 VZ= 2.906774887910508E-01
 LT= 6.894994967211961E+02 RG= 2.067067489118103E+08 RR= 1.797153884916885E-01
2405496.500000000 = A.D. 1873-Dec-04 00:00:00.0000 TDB 
 X = 2.010999851779462E+08 Y =-4.856971414456265E+07 Z =-6.012656666114707E+06
 VX= 6.637386538774222E+00 VY= 2.561295050732507E+01 VZ= 3.705355252864724E-01
 LT= 6.903759342139181E+02 RG= 2.069694982620369E+08 RR= 4.277767877658307E-01
2405506.500000000 = A.D. 1873-Dec-14 00:00:00.0000 TDB 
 X = 2.057038306613965E+08 Y =-2.621063266315446E+07 Z =-5.659615097337732E+06
 VX= 4.012777291479453E+00 VY= 2.609558443625738E+01 VZ= 4.458454507071785E-01
 LT= 6.919593554472857E+02 RG= 2.074441960056375E+08 RR= 6.697635879464968E-01
2405516.500000000 = A.D. 1873-Dec-24 00:00:00.0000 TDB 
 X = 2.080275971512985E+08 Y =-3.560673820804084E+06 Z =-5.243833773401517E+06
 VX= 1.365690403423218E+00 VY= 2.628629807588695E+01 VZ= 5.156112679518063E-01
 LT= 6.942274022081205E+02 RG= 2.081241393189270E+08 RR= 9.023488601840685E-01
2405526.500000000 = A.D. 1874-Jan-03 00:00:00.0000 TDB 
 X = 2.080679580645332E+08 Y = 1.912883007062547E+07 Z =-4.770484056511585E+06
 VX=-1.266821477435991E+00 VY= 2.618809665739749E+01 VZ= 5.789752853035299E-01
 LT= 6.971485187164395E+02 RG= 2.089998680170604E+08 RR= 1.122492098431682E+00
2405536.500000000 = A.D. 1874-Jan-13 00:00:00.0000 TDB 
 X = 2.058529258664620E+08 Y = 4.161154510690650E+07 Z =-4.245411586673198E+06
 VX=-3.849435663323681E+00 VY= 2.580946060202542E+01 VZ= 6.352369235970485E-01
 LT= 7.006828939191065E+02 RG= 2.100594470465622E+08 RR= 1.327515146408479E+00
2405546.500000000 = A.D. 1874-Jan-23 00:00:00.0000 TDB 
 X = 2.014399457412768E+08 Y = 6.365061728803651E+07 Z =-3.674995270325918E+06
 VX=-6.349480807757225E+00 VY= 2.516373678425015E+01 VZ= 6.838632454949263E-01
 LT= 7.047835850749038E+02 RG= 2.112888033276575E+08 RR= 1.515154191592935E+00
2405556.500000000 = A.D. 1874-Feb-02 00:00:00.0000 TDB 
 X = 1.949132794375429E+08 Y = 8.502255390660705E+07 Z =-3.066001100924119E+06
 VX=-8.737654094671607E+00 VY= 2.426836973417940E+01 VZ= 7.244908348910322E-01
 LT= 7.093977615416253E+02 RG= 2.126720986322617E+08 RR= 1.683590242310801E+00
2405566.500000000 = A.D. 1874-Feb-12 00:00:00.0000 TDB 
 X = 1.863808655957398E+08 Y = 1.055203970116431E+08 Z =-2.425437797710955E+06
 VX=-1.098851413176385E+01 VY= 2.314404223041180E+01 VZ= 7.569197369428569E-01
 LT= 7.144680049156466E+02 RG= 2.141921193560178E+08 RR= 1.831458078652622E+00
2405576.500000000 = A.D. 1874-Feb-22 00:00:00.0000 TDB 
 X = 1.759708509670524E+08 Y = 1.249561379487510E+08 Z =-1.760420224247567E+06
 VX=-1.308075092050624E+01 VY= 2.181378876112768E+01 VZ= 7.811016757038116E-01
 LT= 7.199336042968067E+02 RG= 2.158306648289390E+08 RR= 1.957835138944013E+00
2405586.500000000 = A.D. 1874-Mar-04 00:00:00.0000 TDB 
 X = 1.638279804927966E+08 Y = 1.431623757798000E+08 Z =-1.078045290168986E+06
 VX=-1.499724794502819E+01 VY= 2.030214182562339E+01 VZ= 7.971236641728092E-01
 LT= 7.257318014460598E+02 RG= 2.175689206042822E+08 RR= 2.062218614372738E+00
2405596.500000000 = A.D. 1874-Mar-14 00:00:00.0000 TDB 
 X = 1.501100067834885E+08 Y = 1.599932709607257E+08 Z =-3.852826271739900E+05
 VX=-1.672498439850294E+01 VY= 1.863435597285691E+01 VZ= 8.051902429942244E-01
 LT= 7.317989493782827E+02 RG= 2.193878057959329E+08 RR= 2.144484809954843E+00
2405606.500000000 = A.D. 1874-Mar-24 00:00:00.0000 TDB 
 X = 1.349842427019062E+08 Y = 1.753248606315128E+08 Z = 3.111183800998777E+05
 VX=-1.825479871562904E+01 VY= 1.683571037934320E+01 VZ= 8.056028157575543E-01
 LT= 7.380715180053207E+02 RG= 2.212682745626063E+08 RR= 2.204830468323421E+00
